TEVEL2-5                
1 63214U 25052E   26068.96660006  .00021339  00000+0  71765-3 0  9991
2 63214  97.4013 325.3677 0004700  95.3936 264.7842 15.30817434 54919
STARLINK-33736          
1 63450U 25069T   26068.52870548  .00038479  00000+0  13052-2 0  9994
2 63450  53.1605 142.9688 0001861  45.9569 314.1585 15.30184124 53332
