[{"OBJECT_NAME":"TEVEL2-5","OBJECT_ID":"2025-052E","EPOCH":"2026-03-09T23:11:54.246048","MEAN_MOTION":15.30817434,"ECCENTRICITY":0.00047002,"INCLINATION":97.4013,"RA_OF_ASC_NODE":325.3677,"ARG_OF_PERICENTER":95.3936,"MEAN_ANOMALY":264.7842,"EPHEMERIS_TYPE":0,"CLASSIFICATION_TYPE":"U","NORAD_CAT_ID":63214,"ELEMENT_SET_NO":999,"REV_AT_EPOCH":5491,"BSTAR":0.00071764727,"MEAN_MOTION_DOT":0.00021339,"MEAN_MOTION_DDOT":0},{"OBJECT_NAME":"STARLINK-33736","OBJECT_ID":"2025-069T","EPOCH":"2026-03-09T12:41:20.153472","MEAN_MOTION":15.30184124,"ECCENTRICITY":0.00018611,"INCLINATION":53.1605,"RA_OF_ASC_NODE":142.9688,"ARG_OF_PERICENTER":45.9569,"MEAN_ANOMALY":314.1585,"EPHEMERIS_TYPE":0,"CLASSIFICATION_TYPE":"U","NORAD_CAT_ID":63450,"ELEMENT_SET_NO":999,"REV_AT_EPOCH":5333,"BSTAR":0.0013052039,"MEAN_MOTION_DOT":0.00038479,"MEAN_MOTION_DDOT":0}]
